start=new Date('2022-06-12T00:00:00.000Z').valueOf();
sats=[{"SEMIMAJOR_AXIS":"6917.879","REV_AT_EPOCH":"130","BSTAR":"0.00078427000000","MEAN_ELEMENT_THEORY":"SGP4","EPHEMERIS_TYPE":"0","MEAN_MOTION":"15.08840344","APOAPSIS":"540.962","DECAY_DATE":null,"MEAN_MOTION_DDOT":"0.0000000000000","OBJECT_NAME":"STARLINK-3646","SITE":"AFWTR","LAUNCH_DATE":"2022-02-25","CLASSIFICATION_TYPE":"U","PERIAPSIS":"538.527","FILE":"3492149","REF_FRAME":"TEME","TIME_SYSTEM":"UTC","ELEMENT_SET_NO":"999","TLE_LINE1":"1 51785U 22017T   22162.91667824  .00012216  00000-0  78427-3 0  9997","OBJECT_ID":"2022-017T","ARG_OF_PERICENTER":"47.3124","PERIOD":"95.438","EPOCH":"2022-06-11T22:00:00.999936","TLE_LINE2":"2 51785  53.2189 354.7953 0001760  47.3124 340.8657 15.08840344  1301","ECCENTRICITY":"0.00017600","MEAN_ANOMALY":"340.8657","NORAD_CAT_ID":"51785","RCS_SIZE":"LARGE","RA_OF_ASC_NODE":"354.7953","GP_ID":"205928321","OBJECT_TYPE":"PAYLOAD","CENTER_NAME":"EARTH","MEAN_MOTION_DOT":"0.00012216","INCLINATION":"53.2189","COUNTRY_CODE":"US"},{"ECCENTRICITY":"0.00018740","TLE_LINE2":"2 51786  53.2169   4.8033 0001874  51.9353 261.2574 15.08820841  1307","NORAD_CAT_ID":"51786","MEAN_ANOMALY":"261.2574","ARG_OF_PERICENTER":"51.9353","OBJECT_ID":"2022-017U","PERIOD":"95.439","EPOCH":"2022-06-11T22:00:00.999936","TLE_LINE1":"1 51786U 22017U   22162.91667824  .00014211  00000-0  90967-3 0  9998","MEAN_MOTION_DOT":"0.00014211","INCLINATION":"53.2169","COUNTRY_CODE":"US","CENTER_NAME":"EARTH","OBJECT_TYPE":"PAYLOAD","RA_OF_ASC_NODE":"4.8033","GP_ID":"205929572","RCS_SIZE":"LARGE","BSTAR":"0.00090967000000","REV_AT_EPOCH":"130","SEMIMAJOR_AXIS":"6917.939","TIME_SYSTEM":"UTC","ELEMENT_SET_NO":"999","REF_FRAME":"TEME","LAUNCH_DATE":"2022-02-25","SITE":"AFWTR","CLASSIFICATION_TYPE":"U","OBJECT_NAME":"STARLINK-3638","FILE":"3492149","PERIAPSIS":"538.508","EPHEMERIS_TYPE":"0","MEAN_ELEMENT_THEORY":"SGP4","MEAN_MOTION":"15.08820841","APOAPSIS":"541.100","DECAY_DATE":null,"MEAN_MOTION_DDOT":"0.0000000000000"},{"TLE_LINE1":"1 51787U 22017V   22162.91667824  .00023188  00000-0  14710-2 0  9993","OBJECT_ID":"2022-017V","ARG_OF_PERICENTER":"49.5410","EPOCH":"2022-06-11T22:00:00.999936","PERIOD":"95.439","TLE_LINE2":"2 51787  53.2151   4.8013 0001590  49.5410 183.6008 15.08820645  1300","ECCENTRICITY":"0.00015900","NORAD_CAT_ID":"51787","MEAN_ANOMALY":"183.6008","RCS_SIZE":"LARGE","RA_OF_ASC_NODE":"4.8013","GP_ID":"205929821","CENTER_NAME":"EARTH","OBJECT_TYPE":"PAYLOAD","INCLINATION":"53.2151","MEAN_MOTION_DOT":"0.00023188","COUNTRY_CODE":"US","SEMIMAJOR_AXIS":"6917.940","REV_AT_EPOCH":"130","BSTAR":"0.00147100000000","MEAN_ELEMENT_THEORY":"SGP4","EPHEMERIS_TYPE":"0","MEAN_MOTION":"15.08820645","APOAPSIS":"540.905","DECAY_DATE":null,"MEAN_MOTION_DDOT":"0.0000000000000","SITE":"AFWTR","CLASSIFICATION_TYPE":"U","LAUNCH_DATE":"2022-02-25","OBJECT_NAME":"STARLINK-3619","FILE":"3492149","PERIAPSIS":"538.705","REF_FRAME":"TEME","TIME_SYSTEM":"UTC","ELEMENT_SET_NO":"999"},{"RCS_SIZE":"LARGE","GP_ID":"205928571","RA_OF_ASC_NODE":"4.7998","CENTER_NAME":"EARTH","OBJECT_TYPE":"PAYLOAD","COUNTRY_CODE":"US","MEAN_MOTION_DOT":"0.00019101","INCLINATION":"53.2204","TLE_LINE1":"1 51788U 22017W   22162.91667824  .00019101  00000-0  12160-2 0  9991","EPOCH":"2022-06-11T22:00:00.999936","PERIOD":"95.440","OBJECT_ID":"2022-017W","ARG_OF_PERICENTER":"45.5619","NORAD_CAT_ID":"51788","MEAN_ANOMALY":"327.6247","TLE_LINE2":"2 51788  53.2204   4.7998 0002077  45.5619 327.6247 15.08808736  1301","ECCENTRICITY":"0.00020770","MEAN_MOTION_DDOT":"0.0000000000000","APOAPSIS":"541.278","DECAY_DATE":null,"MEAN_MOTION":"15.08808736","EPHEMERIS_TYPE":"0","MEAN_ELEMENT_THEORY":"SGP4","FILE":"3492149","PERIAPSIS":"538.404","SITE":"AFWTR","CLASSIFICATION_TYPE":"U","LAUNCH_DATE":"2022-02-25","OBJECT_NAME":"STARLINK-3641","REF_FRAME":"TEME","TIME_SYSTEM":"UTC","ELEMENT_SET_NO":"999","SEMIMAJOR_AXIS":"6917.976","REV_AT_EPOCH":"130","BSTAR":"0.00121600000000"},{"REF_FRAME":"TEME","ELEMENT_SET_NO":"999","TIME_SYSTEM":"UTC","MEAN_MOTION_DDOT":"0.0000000000000","APOAPSIS":"541.086","DECAY_DATE":null,"MEAN_MOTION":"15.08817983","MEAN_ELEMENT_THEORY":"SGP4","EPHEMERIS_TYPE":"0","FILE":"3492149","PERIAPSIS":"538.540","SITE":"AFWTR","LAUNCH_DATE":"2022-02-25","CLASSIFICATION_TYPE":"U","OBJECT_NAME":"STARLINK-3639","BSTAR":"0.00137370000000","SEMIMAJOR_AXIS":"6917.948","REV_AT_EPOCH":"130","CENTER_NAME":"EARTH","OBJECT_TYPE":"PAYLOAD","COUNTRY_CODE":"US","INCLINATION":"53.2171","MEAN_MOTION_DOT":"0.00021629","RCS_SIZE":"LARGE","GP_ID":"205928821","RA_OF_ASC_NODE":"4.8042","EPOCH":"2022-06-11T22:00:00.999936","PERIOD":"95.439","OBJECT_ID":"2022-017X","ARG_OF_PERICENTER":"66.7028","NORAD_CAT_ID":"51789","MEAN_ANOMALY":"226.4959","TLE_LINE2":"2 51789  53.2171   4.8042 0001840  66.7028 226.4959 15.08817983  1302","ECCENTRICITY":"0.00018400","TLE_LINE1":"1 51789U 22017X   22162.91667824  .00021629  00000-0  13737-2 0  9991"},{"REF_FRAME":"TEME","ELEMENT_SET_NO":"999","TIME_SYSTEM":"UTC","MEAN_ELEMENT_THEORY":"SGP4","EPHEMERIS_TYPE":"0","MEAN_MOTION":"15.08853432","DECAY_DATE":null,"APOAPSIS":"540.900","MEAN_MOTION_DDOT":"0.0000000000000","OBJECT_NAME":"STARLINK-3631","SITE":"AFWTR","LAUNCH_DATE":"2022-02-25","CLASSIFICATION_TYPE":"U","FILE":"3492149","PERIAPSIS":"538.509","BSTAR":"-0.00159420000000","SEMIMAJOR_AXIS":"6917.839","REV_AT_EPOCH":"130","CENTER_NAME":"EARTH","OBJECT_TYPE":"PAYLOAD","INCLINATION":"53.2194","MEAN_MOTION_DOT":"-0.00025580","COUNTRY_CODE":"US","RCS_SIZE":"LARGE","RA_OF_ASC_NODE":"4.8023","GP_ID":"205929073","OBJECT_ID":"2022-017Y","ARG_OF_PERICENTER":"55.0716","PERIOD":"95.437","EPOCH":"2022-06-11T22:00:00.999936","TLE_LINE2":"2 51790  53.2194   4.8023 0001728  55.0716 338.1017 15.08853432  1303","ECCENTRICITY":"0.00017280","MEAN_ANOMALY":"338.1017","NORAD_CAT_ID":"51790","TLE_LINE1":"1 51790U 22017Y   22162.91667824 -.00025580  00000-0 -15942-2 0  9995"},{"APOAPSIS":"540.893","DECAY_DATE":null,"MEAN_MOTION_DDOT":"0.0000000000000","MEAN_ELEMENT_THEORY":"SGP4","EPHEMERIS_TYPE":"0","MEAN_MOTION":"15.08844094","OBJECT_NAME":"STARLINK-3602","SITE":"AFWTR","LAUNCH_DATE":"2022-02-25","CLASSIFICATION_TYPE":"U","FILE":"3492149","PERIAPSIS":"538.573","REF_FRAME":"TEME","ELEMENT_SET_NO":"999","TIME_SYSTEM":"UTC","SEMIMAJOR_AXIS":"6917.868","REV_AT_EPOCH":"130","BSTAR":"-0.00127950000000","RCS_SIZE":"LARGE","RA_OF_ASC_NODE":"4.7960","GP_ID":"205929322","OBJECT_TYPE":"PAYLOAD","CENTER_NAME":"EARTH","COUNTRY_CODE":"US","MEAN_MOTION_DOT":"-0.00020596","INCLINATION":"53.2178","TLE_LINE1":"1 51791U 22017Z   22162.91667824 -.00020596  00000-0 -12795-2 0  9991","OBJECT_ID":"2022-017Z","ARG_OF_PERICENTER":"50.1199","PERIOD":"95.437","EPOCH":"2022-06-11T22:00:00.999936","ECCENTRICITY":"0.00016770","TLE_LINE2":"2 51791  53.2178   4.7960 0001677  50.1199 283.0558 15.08844094  1301","NORAD_CAT_ID":"51791","MEAN_ANOMALY":"283.0558"},{"TIME_SYSTEM":"UTC","ELEMENT_SET_NO":"999","REF_FRAME":"TEME","SITE":"AFWTR","OBJECT_NAME":"STARLINK-3626","LAUNCH_DATE":"2022-02-25","CLASSIFICATION_TYPE":"U","PERIAPSIS":"538.618","FILE":"3492149","APOAPSIS":"540.966","DECAY_DATE":null,"MEAN_MOTION_DDOT":"0.0000000000000","EPHEMERIS_TYPE":"0","MEAN_ELEMENT_THEORY":"SGP4","MEAN_MOTION":"15.08824789","BSTAR":"0.00129090000000","REV_AT_EPOCH":"130","SEMIMAJOR_AXIS":"6917.927","COUNTRY_CODE":"US","MEAN_MOTION_DOT":"0.00020308","INCLINATION":"53.2199","OBJECT_TYPE":"PAYLOAD","CENTER_NAME":"EARTH","RA_OF_ASC_NODE":"4.8044","GP_ID":"205928072","RCS_SIZE":"LARGE","ECCENTRICITY":"0.00016970","TLE_LINE2":"2 51792  53.2199   4.8044 0001697  57.9984  15.1771 15.08824789  1308","NORAD_CAT_ID":"51792","MEAN_ANOMALY":"15.1771","ARG_OF_PERICENTER":"57.9984","OBJECT_ID":"2022-017AA","PERIOD":"95.439","EPOCH":"2022-06-11T22:00:00.999936","TLE_LINE1":"1 51792U 22017AA  22162.91667824  .00020308  00000-0  12909-2 0  9998"},{"TLE_LINE1":"1 51793U 22017AB  22162.91667824  .00019889  00000-0  12645-2 0  9998","NORAD_CAT_ID":"51793","MEAN_ANOMALY":"304.3618","TLE_LINE2":"2 51793  53.2188   4.7950 0001694  48.8015 304.3618 15.08830675  1307","ECCENTRICITY":"0.00016940","EPOCH":"2022-06-11T22:00:00.999936","PERIOD":"95.438","ARG_OF_PERICENTER":"48.8015","OBJECT_ID":"2022-017AB","GP_ID":"205928322","RA_OF_ASC_NODE":"4.7950","RCS_SIZE":"LARGE","COUNTRY_CODE":"US","INCLINATION":"53.2188","MEAN_MOTION_DOT":"0.00019889","OBJECT_TYPE":"PAYLOAD","CENTER_NAME":"EARTH","REV_AT_EPOCH":"130","SEMIMAJOR_AXIS":"6917.909","BSTAR":"0.00126450000000","FILE":"3492149","PERIAPSIS":"538.602","LAUNCH_DATE":"2022-02-25","SITE":"AFWTR","CLASSIFICATION_TYPE":"U","OBJECT_NAME":"STARLINK-3633","MEAN_MOTION_DDOT":"0.0000000000000","DECAY_DATE":null,"APOAPSIS":"540.946","MEAN_MOTION":"15.08830675","EPHEMERIS_TYPE":"0","MEAN_ELEMENT_THEORY":"SGP4","ELEMENT_SET_NO":"999","TIME_SYSTEM":"UTC","REF_FRAME":"TEME"},{"REF_FRAME":"TEME","ELEMENT_SET_NO":"999","TIME_SYSTEM":"UTC","MEAN_MOTION_DDOT":"0.0000000000000","APOAPSIS":"540.890","DECAY_DATE":null,"MEAN_MOTION":"15.08828941","MEAN_ELEMENT_THEORY":"SGP4","EPHEMERIS_TYPE":"0","FILE":"3491738","PERIAPSIS":"538.668","SITE":"AFWTR","OBJECT_NAME":"STARLINK-3573","LAUNCH_DATE":"2022-02-25","CLASSIFICATION_TYPE":"U","BSTAR":"0.00105810000000","SEMIMAJOR_AXIS":"6917.914","REV_AT_EPOCH":"1758","CENTER_NAME":"EARTH","OBJECT_TYPE":"PAYLOAD","COUNTRY_CODE":"US","MEAN_MOTION_DOT":"0.00016587","INCLINATION":"53.2191","RCS_SIZE":"LARGE","GP_ID":"205895695","RA_OF_ASC_NODE":"4.8024","EPOCH":"2022-06-11T22:00:00.999936","PERIOD":"95.438","ARG_OF_PERICENTER":"60.8012","OBJECT_ID":"2022-017AC","NORAD_CAT_ID":"51794","MEAN_ANOMALY":"52.4051","TLE_LINE2":"2 51794  53.2191   4.8024 0001606  60.8012  52.4051 15.08828941 17581","ECCENTRICITY":"0.00016060","TLE_LINE1":"1 51794U 22017AC  22162.91667824  .00016587  00000-0  10581-2 0  9998"}];
